NORAD_CAT_ID,OBJECT_NAME,OBJECT_TYPE,EPOCH,MEAN_MOTION,ECCENTRICITY,INCLINATION,RA_OF_ASC_NODE,ARG_OF_PERICENTER,MEAN_ANOMALY,BSTAR,MEAN_MOTION_DOT,MEAN_MOTION_DDOT,TLE_LINE0,TLE_LINE1,TLE_LINE2,SEMIMAJOR_AXIS,PERIOD,APOGEE,PERIGEE,DECAYED
56482.0,STARLINK-6220,PAYLOAD,2024-03-09 10:14:32,14.98331672,0.0002714,70.0007,165.6837,267.5786,92.5062,5.1123e-05,5.17e-06,0.0,0 STARLINK-6220,1 56482U 23064AL  24069.42676181  .00000517  00000-0  51123-4 0  9995,2 56482  70.0007 165.6837 0002714 267.5786  92.5062 14.98331672 46718,6950.188,96.107,573.939,570.166,0.0
56482.0,STARLINK-6220,PAYLOAD,2024-03-09 13:26:48,14.98334563,0.0002734,70.0004,165.3475,265.395,94.6897,5.8583e-05,6.06e-06,0.0,0 STARLINK-6220,1 56482U 23064AL  24069.56027935  .00000606  00000-0  58583-4 0  9993,2 56482  70.0004 165.3475 0002734 265.3950  94.6897 14.98334563 46374,6950.179,96.107,573.944,570.144,0.0
56482.0,STARLINK-6220,PAYLOAD,2024-03-09 16:39:04,14.98334825,0.0002738,70.0004,165.0108,265.6799,94.4047,5.6924e-05,5.86e-06,0.0,0 STARLINK-6220,1 56482U 23064AL  24069.69379878  .00000586  00000-0  56924-4 0  9997,2 56482  70.0004 165.0108 0002738 265.6799  94.4047 14.98334825 46390,6950.178,96.107,573.946,570.14,0.0
56482.0,STARLINK-6220,PAYLOAD,2024-03-09 23:03:36,14.98348769,0.0003154,69.9992,164.3357,275.4573,84.6226,-0.00024379,-3.002e-05,0.0,0 STARLINK-6220,1 56482U 23064AL  24069.96083538 -.00003002  00000-0 -24379-3 0  9998,2 56482  69.9992 164.3357 0003154 275.4573  84.6226 14.98348769 46799,6950.135,96.106,574.192,569.808,0.0
56482.0,STARLINK-6220,PAYLOAD,2024-03-10 11:52:41,14.98331749,0.0002893,70.0003,162.9903,271.746,88.3367,-5.1364e-06,-1.54e-06,0.0,0 STARLINK-6220,1 56482U 23064AL  24070.49492050 -.00000154  00000-0 -51364-5 0  9992,2 56482  70.0003 162.9903 0002893 271.7460  88.3367 14.98331749 46875,6950.187,96.107,574.063,570.042,0.0
56482.0,STARLINK-6220,PAYLOAD,2024-03-11 11:54:41,14.98331963,0.0002853,70.0003,160.466,269.9619,90.1213,-4.8538e-05,-6.72e-06,0.0,0 STARLINK-6220,1 56482U 23064AL  24071.49631936 -.00000672  00000-0 -48538-4 0  9994,2 56482  70.0003 160.4660 0002853 269.9619  90.1213 14.98331963 47026,6950.187,96.107,574.035,570.069,0.0
56482.0,STARLINK-6220,PAYLOAD,2024-03-12 11:56:42,14.9833049,0.0002939,70.0002,157.9414,269.197,90.8852,-1.1247e-05,-2.27e-06,0.0,0 STARLINK-6220,1 56482U 23064AL  24072.49771819 -.00000227  00000-0 -11247-4 0  9993,2 56482  70.0002 157.9414 0002939 269.1970  90.8852 14.98330490 47176,6950.191,96.107,574.099,570.014,0.0
56482.0,STARLINK-6220,PAYLOAD,2024-03-13 11:58:43,14.98333083,0.0003159,69.9997,155.4161,271.4111,88.6686,3.6621e-05,3.44e-06,0.0,0 STARLINK-6220,1 56482U 23064AL  24073.49911387  .00000344  00000-0  36621-4 0  9991,2 56482  69.9997 155.4161 0003159 271.4111  88.6686 14.98333083 47324,6950.183,96.107,574.244,569.853,0.0
56482.0,STARLINK-6220,PAYLOAD,2024-03-14 05:36:12,14.98330405,0.0003144,69.9997,153.5645,271.3531,88.7267,-5.0295e-06,-1.53e-06,0.0,0 STARLINK-6220,1 56482U 23064AL  24074.23347618 -.00000153  00000-0 -50295-5 0  9998,2 56482  69.9997 153.5645 0003144 271.3531  88.7267 14.98330405 47072,6950.192,96.107,574.242,569.871,0.0
56482.0,STARLINK-6220,PAYLOAD,2024-03-14 12:00:44,14.9833031,0.0003132,69.9996,152.8911,271.2719,88.8081,-3.8763e-06,-1.39e-06,0.0,0 STARLINK-6220,1 56482U 23064AL  24074.50051601 -.00000139  00000-0 -38763-5 0  9992,2 56482  69.9996 152.8911 0003132 271.2719  88.8081 14.98330310 47477,6950.192,96.107,574.234,569.88,0.0
56482.0,STARLINK-6220,PAYLOAD,2024-03-15 12:02:45,14.98334251,0.0002707,70.0001,150.3673,268.7793,91.3056,-8.1751e-05,-1.068e-05,0.0,0 STARLINK-6220,1 56482U 23064AL  24075.50191524 -.00001068  00000-0 -81751-4 0  9998,2 56482  70.0001 150.3673 0002707 268.7793  91.3056 14.98334251 47621,6950.18,96.107,573.926,570.163,0.0
56482.0,STARLINK-6220,PAYLOAD,2024-03-16 12:04:46,14.98328888,0.0002827,70.0,147.8426,268.3544,91.7291,5.0253e-06,-3.3e-07,0.0,0 STARLINK-6220,1 56482U 23064AL  24076.50331573 -.00000033  00000-0  50253-5 0  9993,2 56482  70.0000 147.8426 0002827 268.3544  91.7291 14.98328888 47770,6950.196,96.107,574.026,570.097,0.0
56482.0,STARLINK-6220,PAYLOAD,2024-03-16 13:40:54,14.98329277,0.0002808,70.0001,147.6744,268.1511,91.9327,9.5535e-06,2.1e-07,0.0,0 STARLINK-6220,1 56482U 23064AL  24076.57007536  .00000021  00000-0  95535-5 0  9997,2 56482  70.0001 147.6744 0002808 268.1511  91.9327 14.98329277 47420,6950.195,96.107,574.012,570.109,0.0
56482.0,STARLINK-6220,PAYLOAD,2024-03-16 15:17:02,14.98329526,0.0002827,70.0,147.506,268.8039,91.2796,1.1639e-05,4.6e-07,0.0,0 STARLINK-6220,1 56482U 23064AL  24076.63683517  .00000046  00000-0  11639-4 0  9992,2 56482  70.0000 147.5060 0002827 268.8039  91.2796 14.98329526 47433,6950.194,96.107,574.024,570.095,0.0
56482.0,STARLINK-6220,PAYLOAD,2024-03-17 12:06:47,14.98329647,0.0002898,69.9998,145.3178,267.8383,92.2445,7.9396e-06,2e-08,0.0,0 STARLINK-6220,1 56482U 23064AL  24077.50471453  .00000002  00000-0  79396-5 0  9990,2 56482  69.9998 145.3178 0002898 267.8383  92.2445 14.98329647 47921,6950.194,96.107,574.073,570.045,0.0
56482.0,STARLINK-6220,PAYLOAD,2024-03-17 13:42:55,14.98329797,0.0002896,69.9998,145.1494,267.799,92.2837,9.7004e-06,2.3e-07,0.0,0 STARLINK-6220,1 56482U 23064AL  24077.57147437  .00000023  00000-0  97004-5 0  9998,2 56482  69.9998 145.1494 0002896 267.7990  92.2837 14.98329797 47573,6950.194,96.107,574.071,570.046,0.0
56482.0,STARLINK-6220,PAYLOAD,2024-03-18 12:08:48,14.98326476,0.0002915,69.9996,142.7929,265.2745,94.8081,-3.291e-05,-4.86e-06,0.0,0 STARLINK-6220,1 56482U 23064AL  24078.50611774 -.00000486  00000-0 -32910-4 0  9991,2 56482  69.9996 142.7929 0002915 265.2745  94.8081 14.98326476 48076,6950.204,96.107,574.095,570.043,0.0
56482.0,STARLINK-6220,PAYLOAD,2024-03-19 12:10:48,14.98335562,0.0002799,69.9999,140.2685,258.9239,101.1605,7.17e-05,7.63e-06,0.0,0 STARLINK-6220,1 56482U 23064AL  24079.50750772  .00000763  00000-0  71700-4 0  9990,2 56482  69.9999 140.2685 0002799 258.9239 101.1605 14.98335562 47864,6950.176,96.107,573.986,570.095,0.0
56482.0,STARLINK-6220,PAYLOAD,2024-03-19 13:46:56,14.98336032,0.0002815,69.9998,140.1001,259.7952,100.2889,7.4217e-05,7.93e-06,0.0,0 STARLINK-6220,1 56482U 23064AL  24079.57426715  .00000793  00000-0  74217-4 0  9993,2 56482  69.9998 140.1001 0002815 259.7952 100.2889 14.98336032 48233,6950.174,96.107,573.996,570.083,0.0
56482.0,STARLINK-6220,PAYLOAD,2024-03-20 10:36:42,14.98324646,0.0002471,70.0006,137.9135,252.1026,107.9864,1.2114e-05,5.2e-07,0.0,0 STARLINK-6220,1 56482U 23064AL  24080.44215666  .00000052  00000-0  12114-4 0  9998,2 56482  70.0006 137.9135 0002471 252.1026 107.9864 14.98324646 48364,6950.209,96.107,573.792,570.357,0.0
56482.0,STARLINK-6220,PAYLOAD,2024-03-20 13:48:58,14.98323645,0.0002484,70.0004,137.576,252.4997,107.589,3.091e-06,-5.6e-07,0.0,0 STARLINK-6220,1 56482U 23064AL  24080.57567780 -.00000056  00000-0  30910-5 0  9999,2 56482  70.0004 137.5760 0002484 252.4997 107.5890 14.98323645 48022,6950.213,96.107,573.804,570.351,0.0
56482.0,STARLINK-6220,PAYLOAD,2024-03-21 04:14:10,14.98332995,0.0002861,69.9993,136.0608,264.804,95.2793,-5.5307e-05,-7.53e-06,0.0,0 STARLINK-6220,1 56482U 23064AL  24081.17651326 -.00000753  00000-0 -55307-4 0  9997,2 56482  69.9993 136.0608 0002861 264.8040  95.2793 14.98332995 48478,6950.184,96.107,574.037,570.06,0.0
56482.0,STARLINK-6220,PAYLOAD,2024-03-21 13:50:58,14.98334257,0.0002755,69.9996,135.0512,262.4719,97.6127,-3.3189e-05,-4.89e-06,0.0,0 STARLINK-6220,1 56482U 23064AL  24081.57707101 -.00000489  00000-0 -33189-4 0  9994,2 56482  69.9996 135.0512 0002755 262.4719  97.6127 14.98334257 48170,6950.18,96.107,573.96,570.13,0.0
56482.0,STARLINK-6220,PAYLOAD,2024-03-22 04:16:11,14.98332748,0.0002813,69.9991,133.5352,265.1937,94.8901,6.8852e-05,7.29e-06,0.0,0 STARLINK-6220,1 56482U 23064AL  24082.17790777  .00000729  00000-0  68852-4 0  9992,2 56482  69.9991 133.5352 0002813 265.1937  94.8901 14.98332748 48629,6950.184,96.107,574.004,570.094,0.0
56482.0,STARLINK-6220,PAYLOAD,2024-03-22 12:16:51,14.98337017,0.0002725,69.9992,132.6934,264.7087,95.3761,0.00011658,1.299e-05,0.0,0 STARLINK-6220,1 56482U 23064AL  24082.51170275  .00001299  00000-0  11658-3 0  9999,2 56482  69.9992 132.6934 0002725 264.7087  95.3761 14.98337017 48319,6950.171,96.107,573.93,570.142,0.0
56482.0,STARLINK-6220,PAYLOAD,2024-03-23 04:18:14,14.98304305,0.0002639,70.0002,131.0123,247.1399,112.9481,-0.0002394,-2.946e-05,0.0,0 STARLINK-6220,1 56482U 23064AL  24083.17933980 -.00002946  00000-0 -23940-3 0  9991,2 56482  70.0002 131.0123 0002639 247.1399 112.9481 14.98304305 48771,6950.272,96.109,573.972,570.303,0.0
56482.0,STARLINK-6220,PAYLOAD,2024-03-23 20:19:34,14.98325839,0.0003053,69.999,129.3262,269.1162,90.9647,-2.9719e-05,-4.48e-06,0.0,0 STARLINK-6220,1 56482U 23064AL  24083.84692638 -.00000448  00000-0 -29719-4 0  9993,2 56482  69.9990 129.3262 0003053 269.1162  90.9647 14.98325839 48876,6950.206,96.107,574.193,569.949,0.0
56482.0,STARLINK-6220,PAYLOAD,2024-03-24 04:20:13,14.98339781,0.0002761,69.9998,128.4858,266.6444,93.4399,8.6161e-05,9.35e-06,0.0,0 STARLINK-6220,1 56482U 23064AL  24084.18071476  .00000935  00000-0  86161-4 0  9995,2 56482  69.9998 128.4858 0002761 266.6444  93.4399 14.98339781 48924,6950.163,96.106,573.947,570.109,0.0
56482.0,STARLINK-6220,PAYLOAD,2024-03-24 12:20:53,14.98349031,0.0003019,69.9986,127.6418,271.0749,89.0064,0.0001537,1.742e-05,0.0,0 STARLINK-6220,1 56482U 23064AL  24084.51450516  .00001742  00000-0  15370-3 0  9998,2 56482  69.9986 127.6418 0003019 271.0749  89.0064 14.98349031 48973,6950.134,96.106,574.097,569.901,0.0
56482.0,STARLINK-6220,PAYLOAD,2024-03-24 20:21:34,14.98332523,0.0002407,70.0003,126.7988,278.9953,81.0933,4.289e-05,4.19e-06,0.0,0 STARLINK-6220,1 56482U 23064AL  24084.84832015  .00000419  00000-0  42890-4 0  9990,2 56482  70.0003 126.7988 0002407 278.9953  81.0933 14.98332523 49023,6950.185,96.107,573.723,570.377,0.0
